{"type":"FeatureCollection","features":[{"type":"Feature","id":"351612","properties":{"building_id":"351612","height_m":63},"geometry":{"type":"MultiPolygon","coordinates":[[[[-87.6250673594928,41.887778833834545],[-87.62518059394972,41.88783441694508],[-87.6253723736709,41.88792753142502],[-87.62513832230636,41.888170325528186],[-87.62510912577038,41.888153680036346],[-87.6250780779458,41.888138395238606],[-87.62504517883198,41.88812447113348],[-87.62501224941913,41.88811329107086],[-87.62497745355553,41.88810484372461],[-87.62494264254305,41.8880977683938],[-87.62490598023228,41.88809205375114],[-87.62486928760875,41.888089083148614],[-87.6248325646677,41.88808885658615],[-87.62479582656576,41.88809000203782],[-87.62477376247755,41.88809261013939],[-87.62476898024299,41.88786069244653],[-87.62498751128211,41.88785929638335],[-87.62501350522375,41.887833386449046],[-87.6250673594928,41.887778833834545]]]]}},{"type":"Feature","id":"351639","properties":{"building_id":"351639","height_m":90},"geometry":{"type":"MultiPolygon","coordinates":[[[[-87.6237780110519,41.88730737241912],[-87.62378734060586,41.887791788251384],[-87.6237935910467,41.888056645919534],[-87.623609946108,41.88805825532169],[-87.62334180808041,41.88806208630878],[-87.62333565066032,41.887788996477646],[-87.62332439724123,41.88731280143616],[-87.62361823787437,41.887309129335215],[-87.6237780110519,41.88730737241912]]]]}},{"type":"Feature","id":"351724","properties":{"building_id":"351724","height_m":99},"geometry":{"type":"MultiPolygon","coordinates":[[[[-87.62252282390571,41.887565801148355],[-87.62252332582432,41.88752052431261],[-87.62252634829957,41.88741351770095],[-87.62284032599548,41.88741546071096],[-87.62283847124623,41.88758284781344],[-87.62275033692299,41.88758230249059],[-87.62274808659915,41.88778536224371],[-87.62274787372948,41.88780457059836],[-87.62284518904879,41.88780517272645],[-87.62284328867779,41.887976675893654],[-87.62253481666227,41.88797476696622],[-87.62253759579792,41.887889712766686],[-87.6225192343937,41.88788959911456],[-87.62252040555452,41.88778395317],[-87.62252282390571,41.887565801148355]]]]}},{"type":"Feature","id":"351869","properties":{"building_id":"351869","height_m":141},"geometry":{"type":"MultiPolygon","coordinates":[[[[-87.6214329543067,41.887487699722165],[-87.6214413358022,41.88772512834045],[-87.62096013120737,41.88773449332627],[-87.6209517514935,41.887497064687025],[-87.6214329543067,41.887487699722165]]]]}},{"type":"Feature","id":"351935","properties":{"building_id":"351935","height_m":99},"geometry":{"type":"MultiPolygon","coordinates":[[[[-87.62216104522092,41.88756904972905],[-87.62216066478524,41.887603350359235],[-87.62207435135953,41.88760418791358],[-87.62207451877164,41.88758909563662],[-87.62196066339067,41.88758976251631],[-87.6219600849648,41.887641899471646],[-87.62151936735769,41.88764328488242],[-87.6215175144407,41.887313964728634],[-87.62207575692021,41.887311935170985],[-87.62207738980896,41.88749580929591],[-87.6221600308308,41.88749494899615],[-87.62216162348192,41.88751691277078],[-87.62216104522092,41.88756904972905]]]]}},{"type":"Feature","id":"351943","properties":{"building_id":"351943","height_m":87},"geometry":{"type":"MultiPolygon","coordinates":[[[[-87.62002130919628,41.88695341813387],[-87.62023613437917,41.886954752328656],[-87.62047487480334,41.88695211822148],[-87.62048951047647,41.88761768701278],[-87.62003773050363,41.88762311442503],[-87.62002261110923,41.88700145040399],[-87.62002130919628,41.88695341813387]]]]}},{"type":"Feature","id":"351992","properties":{"building_id":"351992","height_m":135},"geometry":{"type":"MultiPolygon","coordinates":[[[[-87.61980020103769,41.88718667693141],[-87.6195168495291,41.887567737300174],[-87.61939000086664,41.88741601561352],[-87.61937154794852,41.88742413360567],[-87.61939866209555,41.887462721519796],[-87.61931932668371,41.88749653125046],[-87.61920704537411,41.887355876890005],[-87.61928457510382,41.88731931176944],[-87.61934255187631,41.88738965034234],[-87.61936287146703,41.887378799721645],[-87.61921438738446,41.88719126821618],[-87.61980020103769,41.88718667693141]]]]}},{"type":"Feature","id":"352202","properties":{"building_id":"352202","height_m":99},"geometry":{"type":"MultiPolygon","coordinates":[[[[-87.62216924212245,41.88699555453234],[-87.62217360407277,41.88726451697802],[-87.62200829218082,41.88726898159272],[-87.62195008424663,41.88721922472097],[-87.62155527256697,41.88722089464074],[-87.62148857818246,41.88727399389765],[-87.62131593697765,41.887277039962996],[-87.62130790639596,41.88700805474412],[-87.62148239822288,41.88700364804175],[-87.62153693336532,41.88705338238639],[-87.6219336105733,41.88704897984567],[-87.62200030435618,41.88699588032355],[-87.62216924212245,41.88699555453234]]]]}},{"type":"Feature","id":"352271","properties":{"building_id":"352271","height_m":54},"geometry":{"type":"MultiPolygon","coordinates":[[[[-87.6253431557378,41.886915001459755],[-87.62549555317288,41.88691594091837],[-87.62549518967529,41.8869488695509],[-87.62551355082196,41.886948982725166],[-87.62551106696988,41.887173995043106],[-87.6253402925616,41.88717431442713],[-87.6253431557378,41.886915001459755]]]]}},{"type":"Feature","id":"352480","properties":{"building_id":"352480","height_m":120},"geometry":{"type":"MultiPolygon","coordinates":[[[[-87.62708309660985,41.8863219826226],[-87.62708787968056,41.88672129891781],[-87.62647820087686,41.886725780496434],[-87.62647157038161,41.886327824930255],[-87.62708309660985,41.8863219826226]]]]}},{"type":"Feature","id":"352484","properties":{"building_id":"352484","height_m":75},"geometry":{"type":"MultiPolygon","coordinates":[[[[-87.62567455285102,41.88633663743823],[-87.62568876509741,41.88671268584636],[-87.6254279620401,41.88671793903372],[-87.62541375132295,41.8863418906054],[-87.62567455285102,41.88633663743823]]]]}},{"type":"Feature","id":"352488","properties":{"building_id":"352488","height_m":123},"geometry":{"type":"MultiPolygon","coordinates":[[[[-87.6277385381355,41.88633012809517],[-87.62774906007719,41.88670889783234],[-87.62733400890383,41.88671457962858],[-87.62732532551178,41.88633582116074],[-87.6277385381355,41.88633012809517]]]]}},{"type":"Feature","id":"352489","properties":{"building_id":"352489","height_m":150},"geometry":{"type":"MultiPolygon","coordinates":[[[[-87.63061802197382,41.886303876619465],[-87.63065474393841,41.88630410132418],[-87.63080900625768,41.88630230089961],[-87.6308086304646,41.886336601601386],[-87.63085271187724,41.88633549914458],[-87.6308599708007,41.88667857354519],[-87.63081405304315,41.886679664770455],[-87.6308136772478,41.886713965470015],[-87.63026090286806,41.88672018735554],[-87.63026127895917,41.88668588666009],[-87.63022086951656,41.886687011371855],[-87.63021364410173,41.886341192901675],[-87.63025221722731,41.88634005694935],[-87.63025256323081,41.886308500307514],[-87.63061802197382,41.886303876619465]]]]}},{"type":"Feature","id":"352492","properties":{"building_id":"352492","height_m":150},"geometry":{"type":"MultiPolygon","coordinates":[[[[-87.62863771009698,41.88654970008348],[-87.62862272665252,41.886242253270154],[-87.6287273841073,41.8862428954652],[-87.62872843943988,41.886146853541064],[-87.62935835495692,41.88613836770223],[-87.62936689817613,41.8866982450168],[-87.62880495841694,41.886703031587864],[-87.62880297457887,41.886549341989095],[-87.62863771009698,41.88654970008348]]]]}},{"type":"Feature","id":"352493","properties":{"building_id":"352493","height_m":48},"geometry":{"type":"MultiPolygon","coordinates":[[[[-87.63008896992903,41.88632396404337],[-87.6301032532115,41.8866958960206],[-87.62964041820372,41.88670540988854],[-87.62962612254829,41.88633484990258],[-87.63008896992903,41.88632396404337]]]]}},{"type":"Feature","id":"352506","properties":{"building_id":"352506","height_m":69},"geometry":{"type":"MultiPolygon","coordinates":[[[[-87.63444026578335,41.88671139586642],[-87.6341005552712,41.88671207213817],[-87.63410034996154,41.88656250980147],[-87.63430784501536,41.886562400914826],[-87.63430908644166,41.88644852250336],[-87.6340979345103,41.886447237006266],[-87.63409768431518,41.886301790749876],[-87.63442819720107,41.88630243062651],[-87.63442815233824,41.886306546713925],[-87.63442806261256,41.88631477888873],[-87.63442862657385,41.8863304244907],[-87.63444026578335,41.88671139586642]]]]}},{"type":"Feature","id":"352508","properties":{"building_id":"352508","height_m":84},"geometry":{"type":"MultiPolygon","coordinates":[[[[-87.63525950560745,41.88584233825163],[-87.63528498168529,41.88670692882909],[-87.63489012804943,41.88671276071052],[-87.63486464235089,41.885849542116105],[-87.63525950560745,41.88584233825163]]]]}},{"type":"Feature","id":"352713","properties":{"building_id":"352713","height_m":108},"geometry":{"type":"MultiPolygon","coordinates":[[[[-87.63636869610256,41.88583123788798],[-87.63633854322698,41.88590240513806],[-87.63628240163544,41.8859994849186],[-87.63623402188492,41.88605819241966],[-87.63617089361742,41.8861222988451],[-87.63609676355976,41.88618496631758],[-87.63603560540699,41.886236735546504],[-87.63596165414202,41.886282938573345],[-87.63588776246293,41.886323653433145],[-87.63581764736631,41.88635478634257],[-87.63573651558652,41.88638585228676],[-87.63568859779167,41.88640202663412],[-87.63559462809279,41.88643164236529],[-87.63557437123143,41.886437007765366],[-87.63557277452827,41.88607750257189],[-87.63571163091193,41.88597269293156],[-87.63575020374343,41.885971555129935],[-87.6357523383495,41.88594412569118],[-87.63589304516049,41.88583795494832],[-87.63636869610256,41.88583123788798]]]]}},{"type":"Feature","id":"353286","properties":{"building_id":"353286","height_m":18},"geometry":{"type":"MultiPolygon","coordinates":[[[[-87.63741621520293,41.88507331957134],[-87.63735858687802,41.88530760293539],[-87.63728918212023,41.88561179302367],[-87.63717534509907,41.885611102986466],[-87.63712254563966,41.88556961928554],[-87.63711325714601,41.88541039700324],[-87.63718488583376,41.88507054535954],[-87.63741621520293,41.88507331957134]]]]}},{"type":"Feature","id":"354486","properties":{"building_id":"354486","height_m":90},"geometry":{"type":"MultiPolygon","coordinates":[[[[-87.63668571033018,41.88386279632379],[-87.63670246653707,41.88434862871425],[-87.63630394048612,41.88435581532487],[-87.6362969823361,41.88415132710746],[-87.63625473852952,41.88415244281164],[-87.6362520209553,41.8840646105891],[-87.63629793677666,41.88406351717401],[-87.63629088918599,41.88386726112786],[-87.63635700120297,41.883866290273644],[-87.63635688190907,41.88387726651591],[-87.63659564048031,41.88387185473928],[-87.63659571501344,41.88386499458751],[-87.63668571033018,41.88386279632379]]]]}},{"type":"Feature","id":"354568","properties":{"building_id":"354568","height_m":12},"geometry":{"type":"MultiPolygon","coordinates":[[[[-87.63770528650802,41.883307779450924],[-87.63752760991144,41.88428365308548],[-87.63721358698433,41.88428723846713],[-87.63720693458353,41.88388516675811],[-87.63722530979227,41.883883906022774],[-87.63722160377753,41.88371785693761],[-87.63719955656275,41.88371909541331],[-87.63719296383485,41.88331153554232],[-87.63770528650802,41.883307779450924]]]]}},{"type":"Feature","id":"354943","properties":{"building_id":"354943","height_m":69},"geometry":{"type":"MultiPolygon","coordinates":[[[[-87.63666777412264,41.88331658341167],[-87.6366827387922,41.88379828861946],[-87.63614832019206,41.88380739448261],[-87.63613335953663,41.88332568923633],[-87.63666777412264,41.88331658341167]]]]}},{"type":"Feature","id":"355637","properties":{"building_id":"355637","height_m":135},"geometry":{"type":"MultiPolygon","coordinates":[[[[-87.63783894162376,41.88198860846231],[-87.63787348299529,41.88202037643798],[-87.6378370785299,41.88249902627225],[-87.63773920726094,41.883058258898444],[-87.6377003534398,41.883085465968755],[-87.63722840984313,41.883090838930904],[-87.63718831552013,41.88306315346808],[-87.63717198506845,41.88304521689948],[-87.63711688994907,41.88304625501563],[-87.63708734173436,41.88204717169613],[-87.63711304543891,41.88204732752983],[-87.63711291138739,41.8820596758083],[-87.63714964586656,41.88205852638705],[-87.63715188397782,41.88202149268143],[-87.63718519966008,41.881996996461815],[-87.63783894162376,41.88198860846231]]]]}},{"type":"Feature","id":"357025","properties":{"building_id":"357025","height_m":120},"geometry":{"type":"MultiPolygon","coordinates":[[[[-87.63655010558311,41.8813029677723],[-87.63655837860081,41.881555488300336],[-87.63645281920212,41.88163854718149],[-87.63645464248138,41.88180870128656],[-87.63578257240582,41.88181422583852],[-87.63576600264784,41.88131192878943],[-87.63655010558311,41.8813029677723]]]]}},{"type":"Feature","id":"357048","properties":{"building_id":"357048","height_m":120},"geometry":{"type":"MultiPolygon","coordinates":[[[[-87.63785752171808,41.881460454270034],[-87.6378645531248,41.88148931140204],[-87.63788291275708,41.88148942258697],[-87.63788977164688,41.881703515057495],[-87.63785488822916,41.88170330380484],[-87.63785641174934,41.88173212757966],[-87.6378252002566,41.88173193855545],[-87.63782673864313,41.881759390299194],[-87.63779551225745,41.88176057329804],[-87.63779703575196,41.88178939707317],[-87.6372516032619,41.8817998135136],[-87.63725010979553,41.881768245671054],[-87.63721153951309,41.881769383996655],[-87.63721000138982,41.881741932246705],[-87.63717510306311,41.88174309281844],[-87.63717356495593,41.88171564106799],[-87.63713133765926,41.88171538507633],[-87.63712451108938,41.88149854851793],[-87.6371557224639,41.88149873773171],[-87.63716673824322,41.881498804511025],[-87.63716521503726,41.88146998072828],[-87.63720745706493,41.88146886467517],[-87.63720591894888,41.881441412923785],[-87.63724081711094,41.881440252341385],[-87.63723930876426,41.88141005652795],[-87.63780309754614,41.881399751317645],[-87.63780400866501,41.88141731999],[-87.63780428658028,41.88142555440167],[-87.63780456151969,41.8814340632196],[-87.63783395178457,41.88143286909792],[-87.63783547529056,41.881461692874254],[-87.63785127647023,41.88146069087238],[-87.63785752171808,41.881460454270034]]]]}},{"type":"Feature","id":"357570","properties":{"building_id":"357570","height_m":120},"geometry":{"type":"MultiPolygon","coordinates":[[[[-87.63713709753803,41.88101563807914],[-87.6371132599843,41.88101274932209],[-87.63710823967313,41.8807986679303],[-87.63715231720234,41.880797563024565],[-87.6371507791221,41.88077011126956],[-87.63718933391183,41.8807703449909],[-87.63718779581623,41.88074289323614],[-87.63722636548141,41.88074175491364],[-87.63722488693656,41.88070881503395],[-87.63778863979485,41.88070125390953],[-87.63778828268764,41.88073418266451],[-87.63782683746099,41.88073441617167],[-87.63782655476636,41.88076048476945],[-87.63786327361348,41.880760707145384],[-87.63786293142176,41.88079226386909],[-87.63790884488073,41.88079116979134],[-87.63791388274156,41.881003879137175],[-87.63787164102902,41.881004995452656],[-87.63787150712844,41.88101734373535],[-87.63787134347207,41.88103243608085],[-87.63785847694292,41.88103373028251],[-87.63783460959068,41.881033585737725],[-87.63783614796856,41.88106103748458],[-87.63779757811933,41.881062176010445],[-87.6377972210122,41.88109510476341],[-87.63763415276738,41.88109741009963],[-87.63723346469166,41.881102665903256],[-87.63723376252224,41.881075225279126],[-87.63723198613734,41.881069726025636],[-87.63719708817689,41.88107088660696],[-87.63719556496484,41.88104206282245],[-87.63715699511859,41.881043201133174],[-87.63715729298127,41.8810157605092],[-87.63713709753803,41.88101563807914]]]]}},{"type":"Feature","id":"358051","properties":{"building_id":"358051","height_m":60},"geometry":{"type":"MultiPolygon","coordinates":[[[[-87.63783611258104,41.88004841151644],[-87.6378498596623,41.880473852494355],[-87.63713200948887,41.88046950285634],[-87.63713102926306,41.88005237192787],[-87.63783611258104,41.88004841151644]]]]}},{"type":"Feature","id":"358341","properties":{"building_id":"358341","height_m":90},"geometry":{"type":"MultiPolygon","coordinates":[[[[-87.63658303471101,41.879454919743495],[-87.6365956704667,41.8799818911674],[-87.63627981775775,41.87998683504999],[-87.63627711515967,41.87989763073447],[-87.63618897622958,41.87989846783545],[-87.6361827644005,41.87962537789729],[-87.63626906704606,41.87962452965445],[-87.63626536360415,41.87945848043638],[-87.63658303471101,41.879454919743495]]]]}},{"type":"Feature","id":"358416","properties":{"building_id":"358416","height_m":99},"geometry":{"type":"MultiPolygon","coordinates":[[[[-87.63769556326051,41.87946440846415],[-87.6377063368985,41.87982534176531],[-87.63722153610536,41.87983338110039],[-87.63721076519549,41.87947244777489],[-87.63769556326051,41.87946440846415]]]]}},{"type":"Feature","id":"358869","properties":{"building_id":"358869","height_m":123},"geometry":{"type":"MultiPolygon","coordinates":[[[[-87.63757422364974,41.878802310613715],[-87.63766749283901,41.87917472070375],[-87.63707539577568,41.879257576117475],[-87.63706559384902,41.87880746068907],[-87.63757422364974,41.878802310613715]]]]}},{"type":"Feature","id":"358897","properties":{"building_id":"358897","height_m":330},"geometry":{"type":"MultiPolygon","coordinates":[[[[-87.63631793900832,41.878675317935695],[-87.63631200286589,41.87905261544773],[-87.63630857157362,41.87919941166541],[-87.63541802725231,41.879206352128556],[-87.63541602877531,41.87854634933196],[-87.63631959399595,41.8785230224351],[-87.63631793900832,41.878675317935695]]]]}},{"type":"Feature","id":"359678","properties":{"building_id":"359678","height_m":42},"geometry":{"type":"MultiPolygon","coordinates":[[[[-87.63737175100849,41.878172651838305],[-87.63754515682915,41.87860454893432],[-87.63749727508987,41.8786179800419],[-87.6370602609971,41.87862219188258],[-87.63704894002765,41.878312023652065],[-87.63711335936605,41.87829732086872],[-87.63708841671581,41.878227191422404],[-87.63737175100849,41.878172651838305]]]]}},{"type":"Feature","id":"360650","properties":{"building_id":"360650","height_m":108},"geometry":{"type":"MultiPolygon","coordinates":[[[[-87.63719900890099,41.87734147088313],[-87.63722808902327,41.877537860649],[-87.63724831315066,41.87753523899072],[-87.6372843200421,41.877770090144566],[-87.63726043901792,41.87777131752157],[-87.6372914149224,41.87796223025932],[-87.63704332035843,41.87798405238315],[-87.63695645403756,41.87736058216052],[-87.63719900890099,41.87734147088313]]]]}},{"type":"Feature","id":"360936","properties":{"building_id":"360936","height_m":195},"geometry":{"type":"MultiPolygon","coordinates":[[[[-87.63551845077869,41.87706370764373],[-87.63560106338335,41.8770642095977],[-87.63560079474493,41.87708890616815],[-87.63594529161381,41.87731877100033],[-87.63594666502698,41.87736131513238],[-87.63643152175132,41.87734642087624],[-87.63644225593258,41.87754132738285],[-87.63595194985486,41.877550700100954],[-87.6359533680266,41.877589128136265],[-87.63572761852087,41.87775103957763],[-87.63562951228488,41.877824538183205],[-87.6356291988778,41.87785335084508],[-87.63553921197123,41.877855548346794],[-87.63553804778742,41.877793795774494],[-87.63555825713505,41.877792546446614],[-87.63555852579647,41.87776784987942],[-87.63535102930707,41.8777707053049],[-87.635346059776,41.877552507667716],[-87.63534646288716,41.877515462816994],[-87.63534068715694,41.877371354874164],[-87.63533801634208,41.87711063540037],[-87.63533807606206,41.87710514727393],[-87.63536744945023,41.87710532579954],[-87.63551804777323,41.87710075249873],[-87.63551845077869,41.87706370764373]]]]}},{"type":"Feature","id":"814262","properties":{"building_id":"814262","height_m":6},"geometry":{"type":"MultiPolygon","coordinates":[[[[-87.62568742067278,41.88633534461295],[-87.62585450551973,41.88633637409873],[-87.62586694326438,41.886706923075096],[-87.62569618523592,41.88670587097149],[-87.62568742067278,41.88633534461295]]]]}},{"type":"Feature","id":"814268","properties":{"building_id":"814268","height_m":81},"geometry":{"type":"MultiPolygon","coordinates":[[[[-87.62863771009698,41.88654970008348],[-87.62848895547485,41.88655153139509],[-87.62849044470588,41.88658309929326],[-87.62839678824966,41.88658389653251],[-87.62838912707183,41.88661266402098],[-87.62838346791555,41.88662635047999],[-87.62837780875684,41.88664003693868],[-87.628374030955,41.886649618586716],[-87.62836472974533,41.88666053844711],[-87.62835362259348,41.886668702980366],[-87.62834250035412,41.88667823953979],[-87.62832404876329,41.88668635898192],[-87.62829646188241,41.88669030597601],[-87.62828543014632,41.88669161036635],[-87.62826706906236,41.88669149763581],[-87.62824688695687,41.8866900016016],[-87.62823406437253,41.88668717863178],[-87.6282212719639,41.886681611606086],[-87.62821215177335,41.8866760671272],[-87.62819756852443,41.886666372743136],[-87.62819210546517,41.88666222283843],[-87.6281738952728,41.886648389820905],[-87.62816846239338,41.88664149586065],[-87.62816301442663,41.88663597392737],[-87.62815023712321,41.88662903486662],[-87.62814012967236,41.88587842318207],[-87.62842293203163,41.88587604310976],[-87.62843728099544,41.88624111511138],[-87.62862272665252,41.886242253270154],[-87.62863771009698,41.88654970008348]]]]}},{"type":"Feature","id":"814271","properties":{"building_id":"814271","height_m":57},"geometry":{"type":"MultiPolygon","coordinates":[[[[-87.63444026578335,41.88671139586642],[-87.63442862657385,41.8863304244907],[-87.63442806261256,41.88631477888873],[-87.63442815233824,41.886306546713925],[-87.63442819720107,41.88630243062651],[-87.63468343001468,41.886302611584796],[-87.63468264744479,41.88671149861652],[-87.63444026578335,41.88671139586642]]]]}},{"type":"Feature","id":"814363","properties":{"building_id":"814363","height_m":111},"geometry":{"type":"MultiPolygon","coordinates":[[[[-87.6362293115928,41.88514021529618],[-87.6366423969046,41.8851454663657],[-87.6366337161693,41.88560644616934],[-87.63622788271827,41.885609471808515],[-87.6362293115928,41.88514021529618]]]]}},{"type":"Feature","id":"814409","properties":{"building_id":"814409","height_m":18},"geometry":{"type":"MultiPolygon","coordinates":[[[[-87.63741621520293,41.88507331957134],[-87.63718488583376,41.88507054535954],[-87.6371849900963,41.88506094114786],[-87.63719548112968,41.88494025813616],[-87.63744696204397,41.884947270802556],[-87.63741621520293,41.88507331957134]]]]}},{"type":"Feature","id":"814425","properties":{"building_id":"814425","height_m":96},"geometry":{"type":"MultiPolygon","coordinates":[[[[-87.63719548112968,41.88494025813616],[-87.6371956002845,41.88492928189397],[-87.6372233116589,41.884575442758575],[-87.63747843347387,41.884585221665546],[-87.63747648312166,41.88476495765033],[-87.6374488725507,41.88494042177687],[-87.63744696204397,41.884947270802556],[-87.63719548112968,41.88494025813616]]]]}},{"type":"Feature","id":"814529","properties":{"building_id":"814529","height_m":30},"geometry":{"type":"MultiPolygon","coordinates":[[[[-87.6366590601442,41.88259753913767],[-87.63666287446108,41.88309152585136],[-87.63640398234567,41.88309132710471],[-87.63640566309621,41.88259874585484],[-87.6366590601442,41.88259753913767]]]]}},{"type":"Feature","id":"814558","properties":{"building_id":"814558","height_m":150},"geometry":{"type":"MultiPolygon","coordinates":[[[[-87.6366358251024,41.88203208425958],[-87.63664672985317,41.88254944009612],[-87.63546608199665,41.88255187629134],[-87.63545511212146,41.88204138056742],[-87.6366358251024,41.88203208425958]]]]}},{"type":"Feature","id":"824754","properties":{"building_id":"824754","height_m":144},"geometry":{"type":"MultiPolygon","coordinates":[[[[-87.6366195394757,41.88123258757448],[-87.63546039500818,41.88125216850946],[-87.63544643102225,41.88074686853749],[-87.6366056170335,41.880722622766825],[-87.6366195394757,41.88123258757448]]]]}},{"type":"Feature","id":"824755","properties":{"building_id":"824755","height_m":153},"geometry":{"type":"MultiPolygon","coordinates":[[[[-87.63661101135588,41.88053028405101],[-87.63601236523635,41.88053872522202],[-87.63600490165426,41.88000931537898],[-87.63660063218761,41.87999838673079],[-87.63661101135588,41.88053028405101]]]]}},{"type":"Feature","id":"857901","properties":{"building_id":"857901","height_m":0},"geometry":{"type":"MultiPolygon","coordinates":[[[[-87.63108525325347,41.886730994271254],[-87.6310934728727,41.88634932075533],[-87.63165087976185,41.88635574666667],[-87.63168503213414,41.886725055622435],[-87.63108525325347,41.886730994271254]]]]}},{"type":"Feature","id":"880172","properties":{"building_id":"880172","height_m":33},"geometry":{"type":"MultiPolygon","coordinates":[[[[-87.63637858423874,41.8845752470279],[-87.63670869922693,41.88457380043582],[-87.63672642297745,41.88506725604596],[-87.63613316432387,41.885067106464994],[-87.63613199754234,41.88474970003047],[-87.63638132554011,41.88474776280773],[-87.63637858423874,41.8845752470279]]]]}},{"type":"Feature","id":"880567","properties":{"building_id":"880567","height_m":15},"geometry":{"type":"MultiPolygon","coordinates":[[[[-87.62570595321694,41.88715187007113],[-87.6256951181925,41.887135337868756],[-87.62568613443494,41.88711744495355],[-87.62567898680139,41.88709956335233],[-87.6256755265508,41.88708033235374],[-87.62567390242015,41.88706111266976],[-87.6256777715007,41.88704329895624],[-87.62568165572083,41.887024113216135],[-87.62568919702963,41.887006322131235],[-87.62570039542454,41.88698992570081],[-87.62571342992915,41.88697354058331],[-87.62573012151631,41.88695855011835],[-87.62574679795532,41.886944931677284],[-87.62576711633591,41.88693407991309],[-87.6257892708237,41.886923239458106],[-87.6258113950261,41.886915143051674],[-87.62583532505968,41.88690980200599],[-87.62586474829212,41.88690586691685],[-87.62589227485867,41.88690740861486],[-87.62591793503958,41.88691168304846],[-87.62594358008786,41.886917329502836],[-87.62596735875537,41.88692570869451],[-87.62598928617955,41.886935448598145],[-87.626011183341,41.886947932550626],[-87.62602939314627,41.88696176590747],[-87.62604758782547,41.886976971287964],[-87.62606209514738,41.88699352607513],[-87.62607475122672,41.88701144157867],[-87.6260837350787,41.88702933446452],[-87.62609086768485,41.88704858806809],[-87.62609614904396,41.88706920238971],[-87.62609593718254,41.887088410760676],[-87.62609571018793,41.88710899115807],[-87.62608998996598,41.88712816560473],[-87.62608243361994,41.887147328742806],[-87.62607304114822,41.8871664805719],[-87.62605999156125,41.887184237756536],[-87.626045120979,41.88720061160431],[-87.62602659327854,41.88721559080538],[-87.6259700137578,41.887275943591185],[-87.62570595321694,41.88715187007113]]]]}},{"type":"Feature","id":"880573","properties":{"building_id":"880573","height_m":117},"geometry":{"type":"MultiPolygon","coordinates":[[[[-87.62574509503034,41.887233280711385],[-87.62578705912263,41.8871899798347],[-87.6259700137578,41.887275943591185],[-87.62592811326572,41.887320637413],[-87.62565057089886,41.887613254542266],[-87.62547026124716,41.88751493178158],[-87.62574509503034,41.887233280711385]]]]}},{"type":"Feature","id":"880576","properties":{"building_id":"880576","height_m":123},"geometry":{"type":"MultiPolygon","coordinates":[[[[-87.62540401530481,41.887488567844514],[-87.62540937718518,41.88748173172502],[-87.62565057089886,41.887613254542266],[-87.6256382856884,41.88762620646557],[-87.62557663117099,41.887691512429654],[-87.62551435337781,41.88776115598991],[-87.62527101343403,41.88762805887018],[-87.62533328124393,41.88756283939257],[-87.62539733992344,41.88749574211218],[-87.62540401530481,41.887488567844514]]]]}},{"type":"Feature","id":"892194","properties":{"building_id":"892194","height_m":135},"geometry":{"type":"MultiPolygon","coordinates":[[[[-87.61827859917891,41.88745599706066],[-87.61830922761196,41.88700017246298],[-87.61879163356085,41.887011658685516],[-87.61877496201943,41.8874887802264],[-87.61827859917891,41.88745599706066]]]]}},{"type":"Feature","id":"894281","properties":{"building_id":"894281","height_m":81},"geometry":{"type":"MultiPolygon","coordinates":[[[[-87.62554496420908,41.887131510682934],[-87.62554064990218,41.88692804054867],[-87.62564230340347,41.88693111863446],[-87.62564664508866,41.88713213734206],[-87.62554496420908,41.887131510682934]]]]}}]}