{"type":"FeatureCollection","features":[{"type":"Feature","id":"0-0","properties":{"cell":"0-0","count":53,"year":2025},"geometry":{"type":"Point","coordinates":[-73.996815,40.7419]}},{"type":"Feature","id":"0-1","properties":{"cell":"0-1","count":75,"year":2025},"geometry":{"type":"Point","coordinates":[-73.996815,40.7437]}},{"type":"Feature","id":"0-10","properties":{"cell":"0-10","count":101,"year":2025},"geometry":{"type":"Point","coordinates":[-73.996815,40.7599]}},{"type":"Feature","id":"0-11","properties":{"cell":"0-11","count":91,"year":2025},"geometry":{"type":"Point","coordinates":[-73.996815,40.7617]}},{"type":"Feature","id":"0-12","properties":{"cell":"0-12","count":99,"year":2025},"geometry":{"type":"Point","coordinates":[-73.996815,40.7635]}},{"type":"Feature","id":"0-13","properties":{"cell":"0-13","count":41,"year":2025},"geometry":{"type":"Point","coordinates":[-73.996815,40.765299999999996]}},{"type":"Feature","id":"0-14","properties":{"cell":"0-14","count":24,"year":2025},"geometry":{"type":"Point","coordinates":[-73.996815,40.7671]}},{"type":"Feature","id":"0-2","properties":{"cell":"0-2","count":101,"year":2025},"geometry":{"type":"Point","coordinates":[-73.996815,40.7455]}},{"type":"Feature","id":"0-3","properties":{"cell":"0-3","count":68,"year":2025},"geometry":{"type":"Point","coordinates":[-73.996815,40.7473]}},{"type":"Feature","id":"0-4","properties":{"cell":"0-4","count":61,"year":2025},"geometry":{"type":"Point","coordinates":[-73.996815,40.7491]}},{"type":"Feature","id":"0-5","properties":{"cell":"0-5","count":107,"year":2025},"geometry":{"type":"Point","coordinates":[-73.996815,40.7509]}},{"type":"Feature","id":"0-6","properties":{"cell":"0-6","count":54,"year":2025},"geometry":{"type":"Point","coordinates":[-73.996815,40.7527]}},{"type":"Feature","id":"0-7","properties":{"cell":"0-7","count":53,"year":2025},"geometry":{"type":"Point","coordinates":[-73.996815,40.7545]}},{"type":"Feature","id":"0-8","properties":{"cell":"0-8","count":61,"year":2025},"geometry":{"type":"Point","coordinates":[-73.996815,40.7563]}},{"type":"Feature","id":"0-9","properties":{"cell":"0-9","count":84,"year":2025},"geometry":{"type":"Point","coordinates":[-73.996815,40.7581]}},{"type":"Feature","id":"1-0","properties":{"cell":"1-0","count":171,"year":2025},"geometry":{"type":"Point","coordinates":[-73.994445,40.7419]}},{"type":"Feature","id":"1-1","properties":{"cell":"1-1","count":120,"year":2025},"geometry":{"type":"Point","coordinates":[-73.994445,40.7437]}},{"type":"Feature","id":"1-10","properties":{"cell":"1-10","count":104,"year":2025},"geometry":{"type":"Point","coordinates":[-73.994445,40.7599]}},{"type":"Feature","id":"1-11","properties":{"cell":"1-11","count":261,"year":2025},"geometry":{"type":"Point","coordinates":[-73.994445,40.7617]}},{"type":"Feature","id":"1-12","properties":{"cell":"1-12","count":81,"year":2025},"geometry":{"type":"Point","coordinates":[-73.994445,40.7635]}},{"type":"Feature","id":"1-13","properties":{"cell":"1-13","count":49,"year":2025},"geometry":{"type":"Point","coordinates":[-73.994445,40.765299999999996]}},{"type":"Feature","id":"1-14","properties":{"cell":"1-14","count":49,"year":2025},"geometry":{"type":"Point","coordinates":[-73.994445,40.7671]}},{"type":"Feature","id":"1-2","properties":{"cell":"1-2","count":247,"year":2025},"geometry":{"type":"Point","coordinates":[-73.994445,40.7455]}},{"type":"Feature","id":"1-3","properties":{"cell":"1-3","count":122,"year":2025},"geometry":{"type":"Point","coordinates":[-73.994445,40.7473]}},{"type":"Feature","id":"1-4","properties":{"cell":"1-4","count":218,"year":2025},"geometry":{"type":"Point","coordinates":[-73.994445,40.7491]}},{"type":"Feature","id":"1-5","properties":{"cell":"1-5","count":113,"year":2025},"geometry":{"type":"Point","coordinates":[-73.994445,40.7509]}},{"type":"Feature","id":"1-6","properties":{"cell":"1-6","count":1153,"year":2025},"geometry":{"type":"Point","coordinates":[-73.994445,40.7527]}},{"type":"Feature","id":"1-7","properties":{"cell":"1-7","count":290,"year":2025},"geometry":{"type":"Point","coordinates":[-73.994445,40.7545]}},{"type":"Feature","id":"1-8","properties":{"cell":"1-8","count":313,"year":2025},"geometry":{"type":"Point","coordinates":[-73.994445,40.7563]}},{"type":"Feature","id":"1-9","properties":{"cell":"1-9","count":92,"year":2025},"geometry":{"type":"Point","coordinates":[-73.994445,40.7581]}},{"type":"Feature","id":"10-0","properties":{"cell":"10-0","count":2,"year":2025},"geometry":{"type":"Point","coordinates":[-73.973115,40.7419]}},{"type":"Feature","id":"10-1","properties":{"cell":"10-1","count":68,"year":2025},"geometry":{"type":"Point","coordinates":[-73.973115,40.7437]}},{"type":"Feature","id":"10-10","properties":{"cell":"10-10","count":69,"year":2025},"geometry":{"type":"Point","coordinates":[-73.973115,40.7599]}},{"type":"Feature","id":"10-11","properties":{"cell":"10-11","count":31,"year":2025},"geometry":{"type":"Point","coordinates":[-73.973115,40.7617]}},{"type":"Feature","id":"10-12","properties":{"cell":"10-12","count":280,"year":2025},"geometry":{"type":"Point","coordinates":[-73.973115,40.7635]}},{"type":"Feature","id":"10-13","properties":{"cell":"10-13","count":26,"year":2025},"geometry":{"type":"Point","coordinates":[-73.973115,40.765299999999996]}},{"type":"Feature","id":"10-14","properties":{"cell":"10-14","count":10,"year":2025},"geometry":{"type":"Point","coordinates":[-73.973115,40.7671]}},{"type":"Feature","id":"10-2","properties":{"cell":"10-2","count":44,"year":2025},"geometry":{"type":"Point","coordinates":[-73.973115,40.7455]}},{"type":"Feature","id":"10-3","properties":{"cell":"10-3","count":185,"year":2025},"geometry":{"type":"Point","coordinates":[-73.973115,40.7473]}},{"type":"Feature","id":"10-4","properties":{"cell":"10-4","count":32,"year":2025},"geometry":{"type":"Point","coordinates":[-73.973115,40.7491]}},{"type":"Feature","id":"10-5","properties":{"cell":"10-5","count":74,"year":2025},"geometry":{"type":"Point","coordinates":[-73.973115,40.7509]}},{"type":"Feature","id":"10-6","properties":{"cell":"10-6","count":143,"year":2025},"geometry":{"type":"Point","coordinates":[-73.973115,40.7527]}},{"type":"Feature","id":"10-7","properties":{"cell":"10-7","count":98,"year":2025},"geometry":{"type":"Point","coordinates":[-73.973115,40.7545]}},{"type":"Feature","id":"10-8","properties":{"cell":"10-8","count":44,"year":2025},"geometry":{"type":"Point","coordinates":[-73.973115,40.7563]}},{"type":"Feature","id":"10-9","properties":{"cell":"10-9","count":35,"year":2025},"geometry":{"type":"Point","coordinates":[-73.973115,40.7581]}},{"type":"Feature","id":"11-1","properties":{"cell":"11-1","count":1,"year":2025},"geometry":{"type":"Point","coordinates":[-73.97074500000001,40.7437]}},{"type":"Feature","id":"11-10","properties":{"cell":"11-10","count":50,"year":2025},"geometry":{"type":"Point","coordinates":[-73.97074500000001,40.7599]}},{"type":"Feature","id":"11-11","properties":{"cell":"11-11","count":64,"year":2025},"geometry":{"type":"Point","coordinates":[-73.97074500000001,40.7617]}},{"type":"Feature","id":"11-12","properties":{"cell":"11-12","count":76,"year":2025},"geometry":{"type":"Point","coordinates":[-73.97074500000001,40.7635]}},{"type":"Feature","id":"11-13","properties":{"cell":"11-13","count":59,"year":2025},"geometry":{"type":"Point","coordinates":[-73.97074500000001,40.765299999999996]}},{"type":"Feature","id":"11-14","properties":{"cell":"11-14","count":15,"year":2025},"geometry":{"type":"Point","coordinates":[-73.97074500000001,40.7671]}},{"type":"Feature","id":"11-2","properties":{"cell":"11-2","count":23,"year":2025},"geometry":{"type":"Point","coordinates":[-73.97074500000001,40.7455]}},{"type":"Feature","id":"11-3","properties":{"cell":"11-3","count":20,"year":2025},"geometry":{"type":"Point","coordinates":[-73.97074500000001,40.7473]}},{"type":"Feature","id":"11-4","properties":{"cell":"11-4","count":24,"year":2025},"geometry":{"type":"Point","coordinates":[-73.97074500000001,40.7491]}},{"type":"Feature","id":"11-5","properties":{"cell":"11-5","count":45,"year":2025},"geometry":{"type":"Point","coordinates":[-73.97074500000001,40.7509]}},{"type":"Feature","id":"11-6","properties":{"cell":"11-6","count":86,"year":2025},"geometry":{"type":"Point","coordinates":[-73.97074500000001,40.7527]}},{"type":"Feature","id":"11-7","properties":{"cell":"11-7","count":50,"year":2025},"geometry":{"type":"Point","coordinates":[-73.97074500000001,40.7545]}},{"type":"Feature","id":"11-8","properties":{"cell":"11-8","count":205,"year":2025},"geometry":{"type":"Point","coordinates":[-73.97074500000001,40.7563]}},{"type":"Feature","id":"11-9","properties":{"cell":"11-9","count":106,"year":2025},"geometry":{"type":"Point","coordinates":[-73.97074500000001,40.7581]}},{"type":"Feature","id":"12-10","properties":{"cell":"12-10","count":63,"year":2025},"geometry":{"type":"Point","coordinates":[-73.96837500000001,40.7599]}},{"type":"Feature","id":"12-11","properties":{"cell":"12-11","count":184,"year":2025},"geometry":{"type":"Point","coordinates":[-73.96837500000001,40.7617]}},{"type":"Feature","id":"12-12","properties":{"cell":"12-12","count":50,"year":2025},"geometry":{"type":"Point","coordinates":[-73.96837500000001,40.7635]}},{"type":"Feature","id":"12-13","properties":{"cell":"12-13","count":25,"year":2025},"geometry":{"type":"Point","coordinates":[-73.96837500000001,40.765299999999996]}},{"type":"Feature","id":"12-14","properties":{"cell":"12-14","count":39,"year":2025},"geometry":{"type":"Point","coordinates":[-73.96837500000001,40.7671]}},{"type":"Feature","id":"12-3","properties":{"cell":"12-3","count":2,"year":2025},"geometry":{"type":"Point","coordinates":[-73.96837500000001,40.7473]}},{"type":"Feature","id":"12-4","properties":{"cell":"12-4","count":6,"year":2025},"geometry":{"type":"Point","coordinates":[-73.96837500000001,40.7491]}},{"type":"Feature","id":"12-5","properties":{"cell":"12-5","count":27,"year":2025},"geometry":{"type":"Point","coordinates":[-73.96837500000001,40.7509]}},{"type":"Feature","id":"12-6","properties":{"cell":"12-6","count":38,"year":2025},"geometry":{"type":"Point","coordinates":[-73.96837500000001,40.7527]}},{"type":"Feature","id":"12-7","properties":{"cell":"12-7","count":60,"year":2025},"geometry":{"type":"Point","coordinates":[-73.96837500000001,40.7545]}},{"type":"Feature","id":"12-8","properties":{"cell":"12-8","count":93,"year":2025},"geometry":{"type":"Point","coordinates":[-73.96837500000001,40.7563]}},{"type":"Feature","id":"12-9","properties":{"cell":"12-9","count":84,"year":2025},"geometry":{"type":"Point","coordinates":[-73.96837500000001,40.7581]}},{"type":"Feature","id":"13-10","properties":{"cell":"13-10","count":49,"year":2025},"geometry":{"type":"Point","coordinates":[-73.96600500000001,40.7599]}},{"type":"Feature","id":"13-11","properties":{"cell":"13-11","count":132,"year":2025},"geometry":{"type":"Point","coordinates":[-73.96600500000001,40.7617]}},{"type":"Feature","id":"13-12","properties":{"cell":"13-12","count":29,"year":2025},"geometry":{"type":"Point","coordinates":[-73.96600500000001,40.7635]}},{"type":"Feature","id":"13-13","properties":{"cell":"13-13","count":71,"year":2025},"geometry":{"type":"Point","coordinates":[-73.96600500000001,40.765299999999996]}},{"type":"Feature","id":"13-14","properties":{"cell":"13-14","count":33,"year":2025},"geometry":{"type":"Point","coordinates":[-73.96600500000001,40.7671]}},{"type":"Feature","id":"13-6","properties":{"cell":"13-6","count":16,"year":2025},"geometry":{"type":"Point","coordinates":[-73.96600500000001,40.7527]}},{"type":"Feature","id":"13-7","properties":{"cell":"13-7","count":18,"year":2025},"geometry":{"type":"Point","coordinates":[-73.96600500000001,40.7545]}},{"type":"Feature","id":"13-8","properties":{"cell":"13-8","count":17,"year":2025},"geometry":{"type":"Point","coordinates":[-73.96600500000001,40.7563]}},{"type":"Feature","id":"13-9","properties":{"cell":"13-9","count":14,"year":2025},"geometry":{"type":"Point","coordinates":[-73.96600500000001,40.7581]}},{"type":"Feature","id":"2-0","properties":{"cell":"2-0","count":224,"year":2025},"geometry":{"type":"Point","coordinates":[-73.992075,40.7419]}},{"type":"Feature","id":"2-1","properties":{"cell":"2-1","count":118,"year":2025},"geometry":{"type":"Point","coordinates":[-73.992075,40.7437]}},{"type":"Feature","id":"2-10","properties":{"cell":"2-10","count":124,"year":2025},"geometry":{"type":"Point","coordinates":[-73.992075,40.7599]}},{"type":"Feature","id":"2-11","properties":{"cell":"2-11","count":110,"year":2025},"geometry":{"type":"Point","coordinates":[-73.992075,40.7617]}},{"type":"Feature","id":"2-12","properties":{"cell":"2-12","count":125,"year":2025},"geometry":{"type":"Point","coordinates":[-73.992075,40.7635]}},{"type":"Feature","id":"2-13","properties":{"cell":"2-13","count":94,"year":2025},"geometry":{"type":"Point","coordinates":[-73.992075,40.765299999999996]}},{"type":"Feature","id":"2-14","properties":{"cell":"2-14","count":104,"year":2025},"geometry":{"type":"Point","coordinates":[-73.992075,40.7671]}},{"type":"Feature","id":"2-2","properties":{"cell":"2-2","count":121,"year":2025},"geometry":{"type":"Point","coordinates":[-73.992075,40.7455]}},{"type":"Feature","id":"2-3","properties":{"cell":"2-3","count":152,"year":2025},"geometry":{"type":"Point","coordinates":[-73.992075,40.7473]}},{"type":"Feature","id":"2-4","properties":{"cell":"2-4","count":116,"year":2025},"geometry":{"type":"Point","coordinates":[-73.992075,40.7491]}},{"type":"Feature","id":"2-5","properties":{"cell":"2-5","count":442,"year":2025},"geometry":{"type":"Point","coordinates":[-73.992075,40.7509]}},{"type":"Feature","id":"2-6","properties":{"cell":"2-6","count":556,"year":2025},"geometry":{"type":"Point","coordinates":[-73.992075,40.7527]}},{"type":"Feature","id":"2-7","properties":{"cell":"2-7","count":358,"year":2025},"geometry":{"type":"Point","coordinates":[-73.992075,40.7545]}},{"type":"Feature","id":"2-8","properties":{"cell":"2-8","count":270,"year":2025},"geometry":{"type":"Point","coordinates":[-73.992075,40.7563]}},{"type":"Feature","id":"2-9","properties":{"cell":"2-9","count":218,"year":2025},"geometry":{"type":"Point","coordinates":[-73.992075,40.7581]}},{"type":"Feature","id":"3-0","properties":{"cell":"3-0","count":90,"year":2025},"geometry":{"type":"Point","coordinates":[-73.989705,40.7419]}},{"type":"Feature","id":"3-1","properties":{"cell":"3-1","count":112,"year":2025},"geometry":{"type":"Point","coordinates":[-73.989705,40.7437]}},{"type":"Feature","id":"3-10","properties":{"cell":"3-10","count":230,"year":2025},"geometry":{"type":"Point","coordinates":[-73.989705,40.7599]}},{"type":"Feature","id":"3-11","properties":{"cell":"3-11","count":159,"year":2025},"geometry":{"type":"Point","coordinates":[-73.989705,40.7617]}},{"type":"Feature","id":"3-12","properties":{"cell":"3-12","count":145,"year":2025},"geometry":{"type":"Point","coordinates":[-73.989705,40.7635]}},{"type":"Feature","id":"3-13","properties":{"cell":"3-13","count":155,"year":2025},"geometry":{"type":"Point","coordinates":[-73.989705,40.765299999999996]}},{"type":"Feature","id":"3-14","properties":{"cell":"3-14","count":54,"year":2025},"geometry":{"type":"Point","coordinates":[-73.989705,40.7671]}},{"type":"Feature","id":"3-2","properties":{"cell":"3-2","count":166,"year":2025},"geometry":{"type":"Point","coordinates":[-73.989705,40.7455]}},{"type":"Feature","id":"3-3","properties":{"cell":"3-3","count":197,"year":2025},"geometry":{"type":"Point","coordinates":[-73.989705,40.7473]}},{"type":"Feature","id":"3-4","properties":{"cell":"3-4","count":150,"year":2025},"geometry":{"type":"Point","coordinates":[-73.989705,40.7491]}},{"type":"Feature","id":"3-5","properties":{"cell":"3-5","count":2160,"year":2025},"geometry":{"type":"Point","coordinates":[-73.989705,40.7509]}},{"type":"Feature","id":"3-6","properties":{"cell":"3-6","count":202,"year":2025},"geometry":{"type":"Point","coordinates":[-73.989705,40.7527]}},{"type":"Feature","id":"3-7","properties":{"cell":"3-7","count":195,"year":2025},"geometry":{"type":"Point","coordinates":[-73.989705,40.7545]}},{"type":"Feature","id":"3-8","properties":{"cell":"3-8","count":610,"year":2025},"geometry":{"type":"Point","coordinates":[-73.989705,40.7563]}},{"type":"Feature","id":"3-9","properties":{"cell":"3-9","count":1179,"year":2025},"geometry":{"type":"Point","coordinates":[-73.989705,40.7581]}},{"type":"Feature","id":"4-0","properties":{"cell":"4-0","count":32,"year":2025},"geometry":{"type":"Point","coordinates":[-73.987335,40.7419]}},{"type":"Feature","id":"4-1","properties":{"cell":"4-1","count":130,"year":2025},"geometry":{"type":"Point","coordinates":[-73.987335,40.7437]}},{"type":"Feature","id":"4-10","properties":{"cell":"4-10","count":149,"year":2025},"geometry":{"type":"Point","coordinates":[-73.987335,40.7599]}},{"type":"Feature","id":"4-11","properties":{"cell":"4-11","count":227,"year":2025},"geometry":{"type":"Point","coordinates":[-73.987335,40.7617]}},{"type":"Feature","id":"4-12","properties":{"cell":"4-12","count":283,"year":2025},"geometry":{"type":"Point","coordinates":[-73.987335,40.7635]}},{"type":"Feature","id":"4-13","properties":{"cell":"4-13","count":124,"year":2025},"geometry":{"type":"Point","coordinates":[-73.987335,40.765299999999996]}},{"type":"Feature","id":"4-14","properties":{"cell":"4-14","count":134,"year":2025},"geometry":{"type":"Point","coordinates":[-73.987335,40.7671]}},{"type":"Feature","id":"4-2","properties":{"cell":"4-2","count":76,"year":2025},"geometry":{"type":"Point","coordinates":[-73.987335,40.7455]}},{"type":"Feature","id":"4-3","properties":{"cell":"4-3","count":200,"year":2025},"geometry":{"type":"Point","coordinates":[-73.987335,40.7473]}},{"type":"Feature","id":"4-4","properties":{"cell":"4-4","count":765,"year":2025},"geometry":{"type":"Point","coordinates":[-73.987335,40.7491]}},{"type":"Feature","id":"4-5","properties":{"cell":"4-5","count":168,"year":2025},"geometry":{"type":"Point","coordinates":[-73.987335,40.7509]}},{"type":"Feature","id":"4-6","properties":{"cell":"4-6","count":97,"year":2025},"geometry":{"type":"Point","coordinates":[-73.987335,40.7527]}},{"type":"Feature","id":"4-7","properties":{"cell":"4-7","count":562,"year":2025},"geometry":{"type":"Point","coordinates":[-73.987335,40.7545]}},{"type":"Feature","id":"4-8","properties":{"cell":"4-8","count":1480,"year":2025},"geometry":{"type":"Point","coordinates":[-73.987335,40.7563]}},{"type":"Feature","id":"4-9","properties":{"cell":"4-9","count":195,"year":2025},"geometry":{"type":"Point","coordinates":[-73.987335,40.7581]}},{"type":"Feature","id":"5-0","properties":{"cell":"5-0","count":64,"year":2025},"geometry":{"type":"Point","coordinates":[-73.984965,40.7419]}},{"type":"Feature","id":"5-1","properties":{"cell":"5-1","count":294,"year":2025},"geometry":{"type":"Point","coordinates":[-73.984965,40.7437]}},{"type":"Feature","id":"5-10","properties":{"cell":"5-10","count":380,"year":2025},"geometry":{"type":"Point","coordinates":[-73.984965,40.7599]}},{"type":"Feature","id":"5-11","properties":{"cell":"5-11","count":369,"year":2025},"geometry":{"type":"Point","coordinates":[-73.984965,40.7617]}},{"type":"Feature","id":"5-12","properties":{"cell":"5-12","count":130,"year":2025},"geometry":{"type":"Point","coordinates":[-73.984965,40.7635]}},{"type":"Feature","id":"5-13","properties":{"cell":"5-13","count":670,"year":2025},"geometry":{"type":"Point","coordinates":[-73.984965,40.765299999999996]}},{"type":"Feature","id":"5-14","properties":{"cell":"5-14","count":69,"year":2025},"geometry":{"type":"Point","coordinates":[-73.984965,40.7671]}},{"type":"Feature","id":"5-2","properties":{"cell":"5-2","count":107,"year":2025},"geometry":{"type":"Point","coordinates":[-73.984965,40.7455]}},{"type":"Feature","id":"5-3","properties":{"cell":"5-3","count":154,"year":2025},"geometry":{"type":"Point","coordinates":[-73.984965,40.7473]}},{"type":"Feature","id":"5-4","properties":{"cell":"5-4","count":84,"year":2025},"geometry":{"type":"Point","coordinates":[-73.984965,40.7491]}},{"type":"Feature","id":"5-5","properties":{"cell":"5-5","count":136,"year":2025},"geometry":{"type":"Point","coordinates":[-73.984965,40.7509]}},{"type":"Feature","id":"5-6","properties":{"cell":"5-6","count":97,"year":2025},"geometry":{"type":"Point","coordinates":[-73.984965,40.7527]}},{"type":"Feature","id":"5-7","properties":{"cell":"5-7","count":411,"year":2025},"geometry":{"type":"Point","coordinates":[-73.984965,40.7545]}},{"type":"Feature","id":"5-8","properties":{"cell":"5-8","count":124,"year":2025},"geometry":{"type":"Point","coordinates":[-73.984965,40.7563]}},{"type":"Feature","id":"5-9","properties":{"cell":"5-9","count":578,"year":2025},"geometry":{"type":"Point","coordinates":[-73.984965,40.7581]}},{"type":"Feature","id":"6-0","properties":{"cell":"6-0","count":95,"year":2025},"geometry":{"type":"Point","coordinates":[-73.982595,40.7419]}},{"type":"Feature","id":"6-1","properties":{"cell":"6-1","count":63,"year":2025},"geometry":{"type":"Point","coordinates":[-73.982595,40.7437]}},{"type":"Feature","id":"6-10","properties":{"cell":"6-10","count":264,"year":2025},"geometry":{"type":"Point","coordinates":[-73.982595,40.7599]}},{"type":"Feature","id":"6-11","properties":{"cell":"6-11","count":154,"year":2025},"geometry":{"type":"Point","coordinates":[-73.982595,40.7617]}},{"type":"Feature","id":"6-12","properties":{"cell":"6-12","count":157,"year":2025},"geometry":{"type":"Point","coordinates":[-73.982595,40.7635]}},{"type":"Feature","id":"6-13","properties":{"cell":"6-13","count":114,"year":2025},"geometry":{"type":"Point","coordinates":[-73.982595,40.765299999999996]}},{"type":"Feature","id":"6-14","properties":{"cell":"6-14","count":502,"year":2025},"geometry":{"type":"Point","coordinates":[-73.982595,40.7671]}},{"type":"Feature","id":"6-2","properties":{"cell":"6-2","count":87,"year":2025},"geometry":{"type":"Point","coordinates":[-73.982595,40.7455]}},{"type":"Feature","id":"6-3","properties":{"cell":"6-3","count":277,"year":2025},"geometry":{"type":"Point","coordinates":[-73.982595,40.7473]}},{"type":"Feature","id":"6-4","properties":{"cell":"6-4","count":38,"year":2025},"geometry":{"type":"Point","coordinates":[-73.982595,40.7491]}},{"type":"Feature","id":"6-5","properties":{"cell":"6-5","count":133,"year":2025},"geometry":{"type":"Point","coordinates":[-73.982595,40.7509]}},{"type":"Feature","id":"6-6","properties":{"cell":"6-6","count":173,"year":2025},"geometry":{"type":"Point","coordinates":[-73.982595,40.7527]}},{"type":"Feature","id":"6-7","properties":{"cell":"6-7","count":25,"year":2025},"geometry":{"type":"Point","coordinates":[-73.982595,40.7545]}},{"type":"Feature","id":"6-8","properties":{"cell":"6-8","count":139,"year":2025},"geometry":{"type":"Point","coordinates":[-73.982595,40.7563]}},{"type":"Feature","id":"6-9","properties":{"cell":"6-9","count":240,"year":2025},"geometry":{"type":"Point","coordinates":[-73.982595,40.7581]}},{"type":"Feature","id":"7-0","properties":{"cell":"7-0","count":142,"year":2025},"geometry":{"type":"Point","coordinates":[-73.980225,40.7419]}},{"type":"Feature","id":"7-1","properties":{"cell":"7-1","count":123,"year":2025},"geometry":{"type":"Point","coordinates":[-73.980225,40.7437]}},{"type":"Feature","id":"7-10","properties":{"cell":"7-10","count":281,"year":2025},"geometry":{"type":"Point","coordinates":[-73.980225,40.7599]}},{"type":"Feature","id":"7-11","properties":{"cell":"7-11","count":61,"year":2025},"geometry":{"type":"Point","coordinates":[-73.980225,40.7617]}},{"type":"Feature","id":"7-12","properties":{"cell":"7-12","count":38,"year":2025},"geometry":{"type":"Point","coordinates":[-73.980225,40.7635]}},{"type":"Feature","id":"7-13","properties":{"cell":"7-13","count":173,"year":2025},"geometry":{"type":"Point","coordinates":[-73.980225,40.765299999999996]}},{"type":"Feature","id":"7-14","properties":{"cell":"7-14","count":72,"year":2025},"geometry":{"type":"Point","coordinates":[-73.980225,40.7671]}},{"type":"Feature","id":"7-2","properties":{"cell":"7-2","count":52,"year":2025},"geometry":{"type":"Point","coordinates":[-73.980225,40.7455]}},{"type":"Feature","id":"7-3","properties":{"cell":"7-3","count":60,"year":2025},"geometry":{"type":"Point","coordinates":[-73.980225,40.7473]}},{"type":"Feature","id":"7-4","properties":{"cell":"7-4","count":51,"year":2025},"geometry":{"type":"Point","coordinates":[-73.980225,40.7491]}},{"type":"Feature","id":"7-5","properties":{"cell":"7-5","count":26,"year":2025},"geometry":{"type":"Point","coordinates":[-73.980225,40.7509]}},{"type":"Feature","id":"7-6","properties":{"cell":"7-6","count":201,"year":2025},"geometry":{"type":"Point","coordinates":[-73.980225,40.7527]}},{"type":"Feature","id":"7-7","properties":{"cell":"7-7","count":141,"year":2025},"geometry":{"type":"Point","coordinates":[-73.980225,40.7545]}},{"type":"Feature","id":"7-8","properties":{"cell":"7-8","count":94,"year":2025},"geometry":{"type":"Point","coordinates":[-73.980225,40.7563]}},{"type":"Feature","id":"7-9","properties":{"cell":"7-9","count":127,"year":2025},"geometry":{"type":"Point","coordinates":[-73.980225,40.7581]}},{"type":"Feature","id":"8-0","properties":{"cell":"8-0","count":431,"year":2025},"geometry":{"type":"Point","coordinates":[-73.977855,40.7419]}},{"type":"Feature","id":"8-1","properties":{"cell":"8-1","count":77,"year":2025},"geometry":{"type":"Point","coordinates":[-73.977855,40.7437]}},{"type":"Feature","id":"8-10","properties":{"cell":"8-10","count":202,"year":2025},"geometry":{"type":"Point","coordinates":[-73.977855,40.7599]}},{"type":"Feature","id":"8-11","properties":{"cell":"8-11","count":98,"year":2025},"geometry":{"type":"Point","coordinates":[-73.977855,40.7617]}},{"type":"Feature","id":"8-12","properties":{"cell":"8-12","count":90,"year":2025},"geometry":{"type":"Point","coordinates":[-73.977855,40.7635]}},{"type":"Feature","id":"8-13","properties":{"cell":"8-13","count":49,"year":2025},"geometry":{"type":"Point","coordinates":[-73.977855,40.765299999999996]}},{"type":"Feature","id":"8-14","properties":{"cell":"8-14","count":28,"year":2025},"geometry":{"type":"Point","coordinates":[-73.977855,40.7671]}},{"type":"Feature","id":"8-2","properties":{"cell":"8-2","count":117,"year":2025},"geometry":{"type":"Point","coordinates":[-73.977855,40.7455]}},{"type":"Feature","id":"8-3","properties":{"cell":"8-3","count":44,"year":2025},"geometry":{"type":"Point","coordinates":[-73.977855,40.7473]}},{"type":"Feature","id":"8-4","properties":{"cell":"8-4","count":65,"year":2025},"geometry":{"type":"Point","coordinates":[-73.977855,40.7491]}},{"type":"Feature","id":"8-5","properties":{"cell":"8-5","count":58,"year":2025},"geometry":{"type":"Point","coordinates":[-73.977855,40.7509]}},{"type":"Feature","id":"8-6","properties":{"cell":"8-6","count":292,"year":2025},"geometry":{"type":"Point","coordinates":[-73.977855,40.7527]}},{"type":"Feature","id":"8-7","properties":{"cell":"8-7","count":66,"year":2025},"geometry":{"type":"Point","coordinates":[-73.977855,40.7545]}},{"type":"Feature","id":"8-8","properties":{"cell":"8-8","count":317,"year":2025},"geometry":{"type":"Point","coordinates":[-73.977855,40.7563]}},{"type":"Feature","id":"8-9","properties":{"cell":"8-9","count":431,"year":2025},"geometry":{"type":"Point","coordinates":[-73.977855,40.7581]}},{"type":"Feature","id":"9-0","properties":{"cell":"9-0","count":74,"year":2025},"geometry":{"type":"Point","coordinates":[-73.975485,40.7419]}},{"type":"Feature","id":"9-1","properties":{"cell":"9-1","count":48,"year":2025},"geometry":{"type":"Point","coordinates":[-73.975485,40.7437]}},{"type":"Feature","id":"9-10","properties":{"cell":"9-10","count":284,"year":2025},"geometry":{"type":"Point","coordinates":[-73.975485,40.7599]}},{"type":"Feature","id":"9-11","properties":{"cell":"9-11","count":62,"year":2025},"geometry":{"type":"Point","coordinates":[-73.975485,40.7617]}},{"type":"Feature","id":"9-12","properties":{"cell":"9-12","count":52,"year":2025},"geometry":{"type":"Point","coordinates":[-73.975485,40.7635]}},{"type":"Feature","id":"9-13","properties":{"cell":"9-13","count":41,"year":2025},"geometry":{"type":"Point","coordinates":[-73.975485,40.765299999999996]}},{"type":"Feature","id":"9-14","properties":{"cell":"9-14","count":1,"year":2025},"geometry":{"type":"Point","coordinates":[-73.975485,40.7671]}},{"type":"Feature","id":"9-2","properties":{"cell":"9-2","count":32,"year":2025},"geometry":{"type":"Point","coordinates":[-73.975485,40.7455]}},{"type":"Feature","id":"9-3","properties":{"cell":"9-3","count":29,"year":2025},"geometry":{"type":"Point","coordinates":[-73.975485,40.7473]}},{"type":"Feature","id":"9-4","properties":{"cell":"9-4","count":94,"year":2025},"geometry":{"type":"Point","coordinates":[-73.975485,40.7491]}},{"type":"Feature","id":"9-5","properties":{"cell":"9-5","count":353,"year":2025},"geometry":{"type":"Point","coordinates":[-73.975485,40.7509]}},{"type":"Feature","id":"9-6","properties":{"cell":"9-6","count":141,"year":2025},"geometry":{"type":"Point","coordinates":[-73.975485,40.7527]}},{"type":"Feature","id":"9-7","properties":{"cell":"9-7","count":40,"year":2025},"geometry":{"type":"Point","coordinates":[-73.975485,40.7545]}},{"type":"Feature","id":"9-8","properties":{"cell":"9-8","count":31,"year":2025},"geometry":{"type":"Point","coordinates":[-73.975485,40.7563]}},{"type":"Feature","id":"9-9","properties":{"cell":"9-9","count":36,"year":2025},"geometry":{"type":"Point","coordinates":[-73.975485,40.7581]}}]}
