{"type": "FeatureCollection", "features": [{"type": "Feature", "id": 0, "properties": {"name": "Bryant Park", "category": "Public park"}, "geometry": {"type": "Point", "coordinates": [-73.9832, 40.7536]}}, {"type": "Feature", "id": 1, "properties": {"name": "Grand Central Terminal", "category": "Transit landmark"}, "geometry": {"type": "Point", "coordinates": [-73.9772, 40.7527]}}, {"type": "Feature", "id": 2, "properties": {"name": "Empire State Building", "category": "Architecture"}, "geometry": {"type": "Point", "coordinates": [-73.9857, 40.7484]}}, {"type": "Feature", "id": 3, "properties": {"name": "New York Public Library", "category": "Library"}, "geometry": {"type": "Point", "coordinates": [-73.9822, 40.7532]}}, {"type": "Feature", "id": 4, "properties": {"name": "Rockefeller Center", "category": "Public plaza"}, "geometry": {"type": "Point", "coordinates": [-73.9787, 40.7587]}}, {"type": "Feature", "id": 5, "properties": {"name": "Chrysler Building", "category": "Architecture"}, "geometry": {"type": "Point", "coordinates": [-73.9753, 40.7516]}}]}
